{
  "type": "FeatureCollection",
  "features": [
    {
      "type": "Feature",
      "properties": {
        "norad_id": 34350,
        "name": "IRIDIUM 33 DEB",
        "group": "iridium-33-debris",
        "lat": 80.8921786059387,
        "lon": 162.73531860618192,
        "alt_km": 726.2761805246582,
        "timestamp": "2025-12-04T13:52:00.826731+00:00",
        "meta_object_name": "IRIDIUM 33 DEB",
        "meta_object_id": "1997-051ES",
        "meta_epoch": "2025-12-04T01:54:53.906976",
        "meta_mean_motion": 14.45357099,
        "meta_eccentricity": 0.00219337,
        "meta_inclination": 86.3281,
        "meta_ra_of_asc_node": 6.5649,
        "meta_arg_of_pericenter": 162.4763,
        "meta_mean_anomaly": 226.5026,
        "meta_ephemeris_type": 0,
        "meta_classification_type": "U",
        "meta_norad_cat_id": 34350,
        "meta_element_set_no": 999,
        "meta_rev_at_epoch": 88168,
        "meta_bstar": 0.00057236591,
        "meta_mean_motion_dot": 2.036e-05,
        "meta_mean_motion_ddot": 0,
        "tle_line1": "1 34350U 97051ES  25338.07979059  .00002036  00000+0  57237-3 0  9991",
        "tle_line2": "2 34350  86.3281   6.5649 0021933 162.4763 226.5026 14.45357099881683"
      },
      "geometry": {
        "type": "Point",
        "coordinates": [
          162.73531860618192,
          80.8921786059387
        ]
      }
    },
    {
      "type": "Feature",
      "properties": {
        "norad_id": 34366,
        "name": "IRIDIUM 33 DEB",
        "group": "iridium-33-debris",
        "lat": 6.477551919858069,
        "lon": -127.55047582835023,
        "alt_km": 699.6619267989645,
        "timestamp": "2025-12-04T13:52:00.826742+00:00",
        "meta_object_name": "IRIDIUM 33 DEB",
        "meta_object_id": "1997-051FJ",
        "meta_epoch": "2025-12-04T06:46:15.002976",
        "meta_mean_motion": 14.53935421,
        "meta_eccentricity": 0.00218081,
        "meta_inclination": 86.3708,
        "meta_ra_of_asc_node": 52.9909,
        "meta_arg_of_pericenter": 166.8355,
        "meta_mean_anomaly": 259.9318,
        "meta_ephemeris_type": 0,
        "meta_classification_type": "U",
        "meta_norad_cat_id": 34366,
        "meta_element_set_no": 999,
        "meta_rev_at_epoch": 88059,
        "meta_bstar": 0.0030543138,
        "meta_mean_motion_dot": 0.00012927,
        "meta_mean_motion_ddot": 0,
        "tle_line1": "1 34366U 97051FJ  25338.28211809  .00012927  00000+0  30543-2 0  9993",
        "tle_line2": "2 34366  86.3708  52.9909 0021808 166.8355 259.9318 14.53935421880597"
      },
      "geometry": {
        "type": "Point",
        "coordinates": [
          -127.55047582835023,
          6.477551919858069
        ]
      }
    },
    {
      "type": "Feature",
      "properties": {
        "norad_id": 34375,
        "name": "IRIDIUM 33 DEB",
        "group": "iridium-33-debris",
        "lat": 63.89838002534775,
        "lon": -166.69954440555225,
        "alt_km": 823.0301779728416,
        "timestamp": "2025-12-04T13:52:00.826753+00:00",
        "meta_object_name": "IRIDIUM 33 DEB",
        "meta_object_id": "1997-051FT",
        "meta_epoch": "2025-12-04T02:19:13.605600",
        "meta_mean_motion": 14.17969108,
        "meta_eccentricity": 0.01025635,
        "meta_inclination": 86.4331,
        "meta_ra_of_asc_node": 186.18,
        "meta_arg_of_pericenter": 153.93,
        "meta_mean_anomaly": 337.07,
        "meta_ephemeris_type": 0,
        "meta_classification_type": "U",
        "meta_norad_cat_id": 34375,
        "meta_element_set_no": 999,
        "meta_rev_at_epoch": 86589,
        "meta_bstar": 0.00070164929,
        "meta_mean_motion_dot": 1.531e-05,
        "meta_mean_motion_ddot": 0,
        "tle_line1": "1 34375U 97051FT  25338.09668525  .00001531  00000+0  70165-3 0  9997",
        "tle_line2": "2 34375  86.4331 186.1800 0102563 153.9300 337.0700 14.17969108865893"
      },
      "geometry": {
        "type": "Point",
        "coordinates": [
          -166.69954440555225,
          63.89838002534775
        ]
      }
    },
    {
      "type": "Feature",
      "properties": {
        "norad_id": 34376,
        "name": "IRIDIUM 33 DEB",
        "group": "iridium-33-debris",
        "lat": -32.257824617255935,
        "lon": -167.44939669082424,
        "alt_km": 674.0370498071861,
        "timestamp": "2025-12-04T13:52:00.826764+00:00",
        "meta_object_name": "IRIDIUM 33 DEB",
        "meta_object_id": "1997-051FU",
        "meta_epoch": "2025-12-04T06:19:49.812672",
        "meta_mean_motion": 14.62377993,
        "meta_eccentricity": 0.00261889,
        "meta_inclination": 86.2991,
        "meta_ra_of_asc_node": 10.3504,
        "meta_arg_of_pericenter": 195.5918,
        "meta_mean_anomaly": 164.449,
        "meta_ephemeris_type": 0,
        "meta_classification_type": "U",
        "meta_norad_cat_id": 34376,
        "meta_element_set_no": 999,
        "meta_rev_at_epoch": 87883,
        "meta_bstar": 0.0035031182,
        "meta_mean_motion_dot": 0.00017843,
        "meta_mean_motion_ddot": 0,
        "tle_line1": "1 34376U 97051FU  25338.26377098  .00017843  00000+0  35031-2 0  9994",
        "tle_line2": "2 34376  86.2991  10.3504 0026188 195.5918 164.4490 14.62377993878839"
      },
      "geometry": {
        "type": "Point",
        "coordinates": [
          -167.44939669082424,
          -32.257824617255935
        ]
      }
    },
    {
      "type": "Feature",
      "properties": {
        "norad_id": 34486,
        "name": "IRIDIUM 33 DEB",
        "group": "iridium-33-debris",
        "lat": 0.30858464977682215,
        "lon": -164.22846312619953,
        "alt_km": 577.8368098249603,
        "timestamp": "2025-12-04T13:52:00.826774+00:00",
        "meta_object_name": "IRIDIUM 33 DEB",
        "meta_object_id": "1997-051GB",
        "meta_epoch": "2025-12-04T03:41:51.118368",
        "meta_mean_motion": 14.951815,
        "meta_eccentricity": 0.00130231,
        "meta_inclination": 86.394,
        "meta_ra_of_asc_node": 15.9863,
        "meta_arg_of_pericenter": 140.9136,
        "meta_mean_anomaly": 279.2911,
        "meta_ephemeris_type": 0,
        "meta_classification_type": "U",
        "meta_norad_cat_id": 34486,
        "meta_element_set_no": 999,
        "meta_rev_at_epoch": 88858,
        "meta_bstar": 0.0048037162,
        "meta_mean_motion_dot": 0.00053192,
        "meta_mean_motion_ddot": 0,
        "tle_line1": "1 34486U 97051GB  25338.15406387  .00053192  00000+0  48037-2 0  9995",
        "tle_line2": "2 34486  86.3940  15.9863 0013023 140.9136 279.2911 14.95181500888584"
      },
      "geometry": {
        "type": "Point",
        "coordinates": [
          -164.22846312619953,
          0.30858464977682215
        ]
      }
    },
    {
      "type": "Feature",
      "properties": {
        "norad_id": 34487,
        "name": "IRIDIUM 33 DEB",
        "group": "iridium-33-debris",
        "lat": -70.01515899048981,
        "lon": 5.766243099921807,
        "alt_km": 771.5293883290615,
        "timestamp": "2025-12-04T13:52:00.826785+00:00",
        "meta_object_name": "IRIDIUM 33 DEB",
        "meta_object_id": "1997-051GC",
        "meta_epoch": "2025-12-03T10:12:00.081216",
        "meta_mean_motion": 14.43196495,
        "meta_eccentricity": 0.00319082,
        "meta_inclination": 86.3443,
        "meta_ra_of_asc_node": 16.3873,
        "meta_arg_of_pericenter": 157.9365,
        "meta_mean_anomaly": 266.0119,
        "meta_ephemeris_type": 0,
        "meta_classification_type": "U",
        "meta_norad_cat_id": 34487,
        "meta_element_set_no": 999,
        "meta_rev_at_epoch": 88114,
        "meta_bstar": 0.00029137047,
        "meta_mean_motion_dot": 1.005e-05,
        "meta_mean_motion_ddot": 0,
        "tle_line1": "1 34487U 97051GC  25337.42500094  .00001005  00000+0  29137-3 0  9992",
        "tle_line2": "2 34487  86.3443  16.3873 0031908 157.9365 266.0119 14.43196495881144"
      },
      "geometry": {
        "type": "Point",
        "coordinates": [
          5.766243099921807,
          -70.01515899048981
        ]
      }
    },
    {
      "type": "Feature",
      "properties": {
        "norad_id": 34488,
        "name": "IRIDIUM 33 DEB",
        "group": "iridium-33-debris",
        "lat": -68.85289916748404,
        "lon": -59.71567434145536,
        "alt_km": 500.6281808071317,
        "timestamp": "2025-12-04T13:52:00.826795+00:00",
        "meta_object_name": "IRIDIUM 33 DEB",
        "meta_object_id": "1997-051GD",
        "meta_epoch": "2025-12-04T04:43:46.394400",
        "meta_mean_motion": 15.26377687,
        "meta_eccentricity": 0.00155256,
        "meta_inclination": 86.3256,
        "meta_ra_of_asc_node": 310.0352,
        "meta_arg_of_pericenter": 64.3641,
        "meta_mean_anomaly": 295.9208,
        "meta_ephemeris_type": 0,
        "meta_classification_type": "U",
        "meta_norad_cat_id": 34488,
        "meta_element_set_no": 999,
        "meta_rev_at_epoch": 89109,
        "meta_bstar": 0.0085126879,
        "meta_mean_motion_dot": 0.00228455,
        "meta_mean_motion_ddot": 0,
        "tle_line1": "1 34488U 97051GD  25338.19706475  .00228455  00000+0  85127-2 0  9999",
        "tle_line2": "2 34488  86.3256 310.0352 0015525  64.3641 295.9208 15.26377687891099"
      },
      "geometry": {
        "type": "Point",
        "coordinates": [
          -59.71567434145536,
          -68.85289916748404
        ]
      }
    }
  ]
}